FENGYUN 1C DEB          
1 31203U 99025BKH 17345.84417181  .00001525  00000-0  71569-3 0  9992
2 31203  98.9973  41.3358 0058491  56.6104 304.0650 14.20747936551269
